NORAD_CAT_ID,OBJECT_NAME,OBJECT_TYPE,EPOCH,MEAN_MOTION,ECCENTRICITY,INCLINATION,RA_OF_ASC_NODE,ARG_OF_PERICENTER,MEAN_ANOMALY,BSTAR,MEAN_MOTION_DOT,MEAN_MOTION_DDOT,TLE_LINE0,TLE_LINE1,TLE_LINE2,SEMIMAJOR_AXIS,PERIOD,APOGEE,PERIGEE,DECAYED
52566.0,STARLINK-3938,PAYLOAD,2023-02-02 13:19:57,15.08834898,0.0001245,53.2181,171.9919,104.3556,255.7574,9.8101e-06,-1.32e-06,0.0,0 STARLINK-3938,1 52566U 22051AK  23033.55552584 -.00000132  00000-0  98101-5 0  9995,2 52566  53.2181 171.9919 0001245 104.3556 255.7574 15.08834898 40619,6917.896,95.438,540.622,538.9,0.0
52566.0,STARLINK-3938,PAYLOAD,2023-02-03 09:59:58,15.08837045,0.0001223,53.218,168.1264,103.1497,256.9631,1.8147e-05,1e-08,0.0,0 STARLINK-3938,1 52566U 22051AK  23034.41664616  .00000001  00000-0  18147-4 0  9996,2 52566  53.2180 168.1264 0001223 103.1497 256.9631 15.08837045 40744,6917.889,95.438,540.6,538.908,0.0
52566.0,STARLINK-3938,PAYLOAD,2023-02-03 17:56:53,15.08836418,0.0001595,53.2155,166.6378,106.1616,253.9552,0.00011285,1.508e-05,0.0,0 STARLINK-3938,1 52566U 22051AK  23034.74784408  .00001508  00000-0  11285-3 0  9992,2 52566  53.2155 166.6378 0001595 106.1616 253.9552 15.08836418 40868,6917.891,95.438,540.86,538.653,0.0
52566.0,STARLINK-3938,PAYLOAD,2023-02-04 13:01:31,15.08833536,0.0001047,53.2151,163.0689,85.6382,274.473,0.00012822,1.753e-05,0.0,0 STARLINK-3938,1 52566U 22051AK  23035.54272647  .00001753  00000-0  12822-3 0  9998,2 52566  53.2151 163.0689 0001047  85.6382 274.4730 15.08833536 40913,6917.9,95.438,540.489,539.041,0.0
52566.0,STARLINK-3938,PAYLOAD,2023-02-04 17:47:40,15.08844938,0.000121,53.2144,162.1755,87.6331,272.48,6.8671e-05,8.05e-06,0.0,0 STARLINK-3938,1 52566U 22051AK  23035.74144058  .00000805  00000-0  68671-4 0  9995,2 52566  53.2144 162.1755 0001210  87.6331 272.4800 15.08844938 40944,6917.865,95.437,540.567,538.893,0.0
52566.0,STARLINK-3938,PAYLOAD,2023-02-05 01:44:36,15.08838022,8.55e-05,53.2153,160.6901,93.31,266.799,-4.8796e-06,-3.65e-06,0.0,0 STARLINK-3938,1 52566U 22051AK  23036.07264663 -.00000365  00000-0 -48796-5 0  9997,2 52566  53.2153 160.6901 0000855  93.3100 266.7990 15.08838022 41069,6917.886,95.438,540.343,539.16,0.0
52566.0,STARLINK-3938,PAYLOAD,2023-02-05 14:27:41,15.08837342,0.0001238,53.2143,158.3106,93.9863,266.1271,4.5818e-06,-2.15e-06,0.0,0 STARLINK-3938,1 52566U 22051AK  23036.60256883 -.00000215  00000-0  45818-5 0  9996,2 52566  53.2143 158.3106 0001238  93.9863 266.1271 15.08837342 41078,6917.889,95.438,540.61,538.897,0.0
52566.0,STARLINK-3938,PAYLOAD,2023-02-05 17:38:28,15.08838994,0.0001273,53.2137,157.7151,98.5732,261.5404,2.1225e-05,5e-07,0.0,0 STARLINK-3938,1 52566U 22051AK  23036.73504711  .00000050  00000-0  21225-4 0  9997,2 52566  53.2137 157.7151 0001273  98.5732 261.5404 15.08838994 41092,6917.883,95.438,540.629,538.868,0.0
52566.0,STARLINK-3938,PAYLOAD,2023-02-06 11:07:42,15.08844686,0.0001189,53.2133,154.4444,95.6603,264.4524,6.1835e-05,6.97e-06,0.0,0 STARLINK-3938,1 52566U 22051AK  23037.46368212  .00000697  00000-0  61835-4 0  9990,2 52566  53.2133 154.4444 0001189  95.6603 264.4524 15.08844686 41278,6917.866,95.437,540.554,538.909,0.0
52566.0,STARLINK-3938,PAYLOAD,2023-02-06 12:43:05,15.08846996,0.0001174,53.2135,154.1471,95.9086,264.2039,8.3589e-05,1.043e-05,0.0,0 STARLINK-3938,1 52566U 22051AK  23037.52991996  .00001043  00000-0  83589-4 0  9994,2 52566  53.2135 154.1471 0001174  95.9086 264.2039 15.08846996 41218,6917.859,95.437,540.536,538.912,0.0
52566.0,STARLINK-3938,PAYLOAD,2023-02-06 17:29:13,15.08858049,0.0001427,53.2161,153.2553,106.5301,253.5848,7.2188e-05,8.62e-06,0.0,0 STARLINK-3938,1 52566U 22051AK  23037.72863252  .00000862  00000-0  72188-4 0  9990,2 52566  53.2161 153.2553 0001427 106.5301 253.5848 15.08858049 41310,6917.825,95.436,540.677,538.703,0.0
52566.0,STARLINK-3938,PAYLOAD,2023-02-07 14:09:14,15.08849329,0.0001204,53.2147,149.3895,90.1865,269.9265,0.00012119,1.642e-05,0.0,0 STARLINK-3938,1 52566U 22051AK  23038.58975635  .00001642  00000-0  12119-3 0  9998,2 52566  53.2147 149.3895 0001204  90.1865 269.9265 15.08849329 41444,6917.852,95.437,540.55,538.884,0.0
52566.0,STARLINK-3938,PAYLOAD,2023-02-07 17:20:00,15.08861576,0.0001019,53.2147,148.7933,91.4867,268.6242,0.00021418,3.124e-05,0.0,0 STARLINK-3938,1 52566U 22051AK  23038.72222474  .00003124  00000-0  21418-3 0  9999,2 52566  53.2147 148.7933 0001019  91.4867 268.6242 15.08861576 41461,6917.814,95.436,540.384,538.975,0.0
52566.0,STARLINK-3938,PAYLOAD,2023-02-08 12:24:39,15.08838691,0.0001452,53.2166,145.2301,101.0602,259.0554,-2.7232e-05,-7.21e-06,0.0,0 STARLINK-3938,1 52566U 22051AK  23039.51712776 -.00000721  00000-0 -27232-4 0  9999,2 52566  53.2166 145.2301 0001452 101.0602 259.0554 15.08838691 41517,6917.884,95.438,540.754,538.745,0.0
52566.0,STARLINK-3938,PAYLOAD,2023-02-08 15:35:24,15.0885968,9.54e-05,53.2141,144.6295,107.8838,252.2258,2.5947e-05,1.25e-06,0.0,0 STARLINK-3938,1 52566U 22051AK  23039.64959084  .00000125  00000-0  25947-4 0  9995,2 52566  53.2141 144.6295 0000954 107.8838 252.2258 15.08859680 41603,6917.82,95.436,540.345,539.025,0.0
52566.0,STARLINK-3938,PAYLOAD,2023-02-09 05:53:54,15.08833092,0.0001286,53.215,141.9575,104.1901,255.9234,2.7156e-05,1.44e-06,0.0,0 STARLINK-3938,1 52566U 22051AK  23040.24577047  .00000144  00000-0  27156-4 0  9993,2 52566  53.2150 141.9575 0001286 104.1901 255.9234 15.08833092 41696,6917.902,95.438,540.656,538.877,0.0
52566.0,STARLINK-3938,PAYLOAD,2023-02-09 10:40:03,15.08833858,0.0001137,53.2143,141.0657,102.3693,257.7426,5.2601e-05,5.49e-06,0.0,0 STARLINK-3938,1 52566U 22051AK  23040.44448619  .00000549  00000-0  52601-4 0  9999,2 52566  53.2143 141.0657 0001137 102.3693 257.7426 15.08833858 41652,6917.899,95.438,540.551,538.978,0.0
52566.0,STARLINK-3938,PAYLOAD,2023-02-09 17:01:35,15.08858685,0.0001334,53.2158,139.8686,111.0849,249.0286,0.00023877,3.516e-05,0.0,0 STARLINK-3938,1 52566U 22051AK  23040.70943390  .00003516  00000-0  23877-3 0  9993,2 52566  53.2158 139.8686 0001334 111.0849 249.0286 15.08858685 41769,6917.823,95.436,540.611,538.765,0.0
52566.0,STARLINK-3938,PAYLOAD,2023-02-09 23:23:08,15.08833665,0.0001871,53.2154,138.6834,77.5254,282.5948,-0.0001683,-2.965e-05,0.0,0 STARLINK-3938,1 52566U 22051AK  23040.97440689 -.00002965  00000-0 -16830-3 0  9995,2 52566  53.2154 138.6834 0001871  77.5254 282.5948 15.08833665 41802,6917.9,95.438,541.059,538.47,0.0
52566.0,STARLINK-3938,PAYLOAD,2023-02-10 15:17:00,15.08843077,0.0001109,53.2146,135.7096,114.6219,245.4889,8.6106e-05,1.083e-05,0.0,0 STARLINK-3938,1 52566U 22051AK  23041.63680676  .00001083  00000-0  86106-4 0  9993,2 52566  53.2146 135.7096 0001109 114.6219 245.4889 15.08843077 41832,6917.871,95.437,540.503,538.969,0.0
52566.0,STARLINK-3938,PAYLOAD,2023-02-11 11:57:01,15.08844395,0.0001842,53.2158,131.8467,106.9557,253.1637,0.00025813,3.823e-05,0.0,0 STARLINK-3938,1 52566U 22051AK  23042.49793365  .00003823  00000-0  25813-3 0  9999,2 52566  53.2158 131.8467 0001842 106.9557 253.1637 15.08844395 42031,6917.867,95.437,541.006,538.458,0.0
52566.0,STARLINK-3938,PAYLOAD,2023-02-11 18:18:33,15.08861855,0.0001415,53.2145,130.654,76.4642,283.6508,0.00063761,9.88e-05,0.0,0 STARLINK-3938,1 52566U 22051AK  23042.76288980  .00009880  00000-0  63761-3 0  9994,2 52566  53.2145 130.6540 0001415  76.4642 283.6508 15.08861855 42000,6917.814,95.436,540.657,538.7,0.0
52566.0,STARLINK-3938,PAYLOAD,2023-02-11 23:04:43,15.08835651,1.74e-05,53.2132,129.7643,233.202,126.8956,0.00017694,2.529e-05,0.0,0 STARLINK-3938,1 52566U 22051AK  23042.96161500  .00002529  00000-0  17694-3 0  9991,2 52566  53.2132 129.7643 0000174 233.2020 126.8956 15.08835651 42104,6917.894,95.438,539.879,539.638,0.0
52566.0,STARLINK-3938,PAYLOAD,2023-02-12 13:23:11,15.088626,0.0001449,53.2129,127.0862,87.1793,272.9365,0.00075183,0.00011705,0.0,0 STARLINK-3938,1 52566U 22051AK  23043.55777270  .00011705  00000-0  75183-3 0  9997,2 52566  53.2129 127.0862 0001449  87.1793 272.9365 15.08862600 42126,6917.811,95.436,540.679,538.674,0.0
52566.0,STARLINK-3938,PAYLOAD,2023-02-12 14:58:34,15.08869425,0.0001539,53.2139,126.7884,87.2287,272.8881,0.00087149,0.0001362,0.0,0 STARLINK-3938,1 52566U 22051AK  23043.62401055  .00013620  00000-0  87149-3 0  9993,2 52566  53.2139 126.7884 0001539  87.2287 272.8881 15.08869425 42209,6917.79,95.436,540.72,538.591,0.0
52566.0,STARLINK-3938,PAYLOAD,2023-02-12 16:33:57,15.08886172,0.0001295,53.213,126.492,82.7938,277.3201,0.0016906,0.00026754,0.0,0 STARLINK-3938,1 52566U 22051AK  23043.69024710  .00026754  00000-0  16906-2 0  9993,2 52566  53.2130 126.4920 0001295  82.7938 277.3201 15.08886172 42215,6917.739,95.435,540.5,538.708,0.0
52566.0,STARLINK-3938,PAYLOAD,2023-02-12 22:55:30,15.08850053,0.000135,53.2131,125.3035,92.1474,267.9673,0.00045201,6.915e-05,0.0,0 STARLINK-3938,1 52566U 22051AK  23043.95521312  .00006915  00000-0  45201-3 0  9990,2 52566  53.2131 125.3035 0001350  92.1474 267.9673 15.08850053 42254,6917.85,95.437,540.649,538.781,0.0
52566.0,STARLINK-3938,PAYLOAD,2023-02-13 13:13:58,15.08859687,0.0001478,53.2135,122.6263,107.2156,252.8998,0.0019977,0.00031666,0.0,0 STARLINK-3938,1 52566U 22051AK  23044.55137112  .00031666  00000-0  19977-2 0  9999,2 52566  53.2135 122.6263 0001478 107.2156 252.8998 15.08859687 42274,6917.82,95.436,540.708,538.663,0.0
52566.0,STARLINK-3938,PAYLOAD,2023-02-13 16:24:44,15.08872761,0.0001328,53.2134,122.0313,101.9119,258.2022,0.0023906,0.00037998,0.0,0 STARLINK-3938,1 52566U 22051AK  23044.68384872  .00037998  00000-0  23906-2 0  9991,2 52566  53.2134 122.0313 0001328 101.9119 258.2022 15.08872761 42363,6917.78,95.435,540.564,538.727,0.0
52566.0,STARLINK-3938,PAYLOAD,2023-02-14 11:29:23,15.08852791,9.16e-05,53.2136,118.4628,86.6512,273.4584,0.0024612,0.00039113,0.0,0 STARLINK-3938,1 52566U 22051AK  23045.47873851  .00039113  00000-0  24612-2 0  9995,2 52566  53.2136 118.4628 0000916  86.6512 273.4584 15.08852791 42487,6917.841,95.437,540.34,539.073,0.0
